CCSDS_OMM_VERS = 2.0
CREATION_DATE  = 
ORIGINATOR     = 

OBJECT_NAME    = AQUA
OBJECT_ID      = 2002-022A
CENTER_NAME    = EARTH
REF_FRAME      = TEME
TIME_SYSTEM    = UTC
MEAN_ELEMENT_THEORY = SGP/SGP4

EPOCH          = 2026-03-26T04:25:00.611040
MEAN_MOTION    = 14.62013384
ECCENTRICITY   = .0001027
INCLINATION    = 98.4202
RA_OF_ASC_NODE = 52.8529
ARG_OF_PERICENTER = 117.4677
MEAN_ANOMALY   = 332.1701

EPHEMERIS_TYPE = 0
CLASSIFICATION_TYPE = U
NORAD_CAT_ID   = 27424
ELEMENT_SET_NO = 999
REV_AT_EPOCH   = 27114
BSTAR          = .20993E-3
MEAN_MOTION_DOT = .1004E-4
MEAN_MOTION_DDOT = 0

CCSDS_OMM_VERS = 2.0
CREATION_DATE  = 
ORIGINATOR     = 

OBJECT_NAME    = CZ-4B R/B
OBJECT_ID      = 2002-024C
CENTER_NAME    = EARTH
REF_FRAME      = TEME
TIME_SYSTEM    = UTC
MEAN_ELEMENT_THEORY = SGP/SGP4

EPOCH          = 2026-03-26T02:56:07.543392
MEAN_MOTION    = 14.14550466
ECCENTRICITY   = .0049636
INCLINATION    = 98.8804
RA_OF_ASC_NODE = 138.4437
ARG_OF_PERICENTER = 337.4968
MEAN_ANOMALY   = 48.9502

EPHEMERIS_TYPE = 0
CLASSIFICATION_TYPE = U
NORAD_CAT_ID   = 27432
ELEMENT_SET_NO = 999
REV_AT_EPOCH   = 23156
BSTAR          = .4198E-4
MEAN_MOTION_DOT = .37E-6
MEAN_MOTION_DDOT = 0

CCSDS_OMM_VERS = 2.0
CREATION_DATE  = 
ORIGINATOR     = 

OBJECT_NAME    = MIDORI II (ADEOS-II)
OBJECT_ID      = 2002-056A
CENTER_NAME    = EARTH
REF_FRAME      = TEME
TIME_SYSTEM    = UTC
MEAN_ELEMENT_THEORY = SGP/SGP4

EPOCH          = 2026-03-26T02:45:13.680288
MEAN_MOTION    = 14.29296885
ECCENTRICITY   = .0000887
INCLINATION    = 98.7797
RA_OF_ASC_NODE = 43.7088
ARG_OF_PERICENTER = 25.1601
MEAN_ANOMALY   = 334.9623

EPHEMERIS_TYPE = 0
CLASSIFICATION_TYPE = U
NORAD_CAT_ID   = 27597
ELEMENT_SET_NO = 999
REV_AT_EPOCH   = 21264
BSTAR          = .13492E-3
MEAN_MOTION_DOT = .298E-5
MEAN_MOTION_DDOT = 0

CCSDS_OMM_VERS = 2.0
CREATION_DATE  = 
ORIGINATOR     = 

OBJECT_NAME    = H-2A R/B
OBJECT_ID      = 2002-056E
CENTER_NAME    = EARTH
REF_FRAME      = TEME
TIME_SYSTEM    = UTC
MEAN_ELEMENT_THEORY = SGP/SGP4

EPOCH          = 2026-03-25T23:08:15.849312
MEAN_MOTION    = 14.33771024
ECCENTRICITY   = .0071296
INCLINATION    = 98.3231
RA_OF_ASC_NODE = 44.7128
ARG_OF_PERICENTER = 112.6855
MEAN_ANOMALY   = 290.1147

EPHEMERIS_TYPE = 0
CLASSIFICATION_TYPE = U
NORAD_CAT_ID   = 27601
ELEMENT_SET_NO = 999
REV_AT_EPOCH   = 21644
BSTAR          = .11382E-3
MEAN_MOTION_DOT = .284E-5
MEAN_MOTION_DDOT = 0

CCSDS_OMM_VERS = 2.0
CREATION_DATE  = 
ORIGINATOR     = 

OBJECT_NAME    = CZ-4B R/B
OBJECT_ID      = 2003-049C
CENTER_NAME    = EARTH
REF_FRAME      = TEME
TIME_SYSTEM    = UTC
MEAN_ELEMENT_THEORY = SGP/SGP4

EPOCH          = 2026-03-25T22:57:22.768992
MEAN_MOTION    = 14.55034235
ECCENTRICITY   = .0048105
INCLINATION    = 98.6892
RA_OF_ASC_NODE = 80.5014
ARG_OF_PERICENTER = 180.7013
MEAN_ANOMALY   = 179.4123

EPHEMERIS_TYPE = 0
CLASSIFICATION_TYPE = U
NORAD_CAT_ID   = 28059
ELEMENT_SET_NO = 999
REV_AT_EPOCH   = 18896
BSTAR          = .91047E-4
MEAN_MOTION_DOT = .347E-5
MEAN_MOTION_DDOT = 0

CCSDS_OMM_VERS = 2.0
CREATION_DATE  = 
ORIGINATOR     = 

OBJECT_NAME    = CZ-2C R/B
OBJECT_ID      = 2004-012C
CENTER_NAME    = EARTH
REF_FRAME      = TEME
TIME_SYSTEM    = UTC
MEAN_ELEMENT_THEORY = SGP/SGP4

EPOCH          = 2026-03-26T02:24:39.559968
MEAN_MOTION    = 15.66488362
ECCENTRICITY   = .0013203
INCLINATION    = 97.7192
RA_OF_ASC_NODE = 151.9693
ARG_OF_PERICENTER = 243.0896
MEAN_ANOMALY   = 116.9015

EPHEMERIS_TYPE = 0
CLASSIFICATION_TYPE = U
NORAD_CAT_ID   = 28222
ELEMENT_SET_NO = 999
REV_AT_EPOCH   = 20684
BSTAR          = .54995E-3
MEAN_MOTION_DOT = .57643E-3
MEAN_MOTION_DDOT = 0

CCSDS_OMM_VERS = 2.0
CREATION_DATE  = 
ORIGINATOR     = 

OBJECT_NAME    = SL-16 R/B
OBJECT_ID      = 2004-021B
CENTER_NAME    = EARTH
REF_FRAME      = TEME
TIME_SYSTEM    = UTC
MEAN_ELEMENT_THEORY = SGP/SGP4

EPOCH          = 2026-03-26T00:05:26.653344
MEAN_MOTION    = 14.14593800
ECCENTRICITY   = .0004827
INCLINATION    = 71.0005
RA_OF_ASC_NODE = 198.2561
ARG_OF_PERICENTER = 349.9553
MEAN_ANOMALY   = 10.1472

EPHEMERIS_TYPE = 0
CLASSIFICATION_TYPE = U
NORAD_CAT_ID   = 28353
ELEMENT_SET_NO = 999
REV_AT_EPOCH   = 12514
BSTAR          = .70982E-4
MEAN_MOTION_DOT = .89E-6
MEAN_MOTION_DDOT = 0

CCSDS_OMM_VERS = 2.0
CREATION_DATE  = 
ORIGINATOR     = 

OBJECT_NAME    = CZ-4B R/B
OBJECT_ID      = 2004-035C
CENTER_NAME    = EARTH
REF_FRAME      = TEME
TIME_SYSTEM    = UTC
MEAN_ELEMENT_THEORY = SGP/SGP4

EPOCH          = 2026-03-26T01:43:21.549216
MEAN_MOTION    = 15.29341154
ECCENTRICITY   = .002998
INCLINATION    = 97.3476
RA_OF_ASC_NODE = 119.1191
ARG_OF_PERICENTER = 270.3151
MEAN_ANOMALY   = 89.4654

EPHEMERIS_TYPE = 0
CLASSIFICATION_TYPE = U
NORAD_CAT_ID   = 28415
ELEMENT_SET_NO = 999
REV_AT_EPOCH   = 18241
BSTAR          = .24861E-3
MEAN_MOTION_DOT = .7093E-4
MEAN_MOTION_DDOT = 0

CCSDS_OMM_VERS = 2.0
CREATION_DATE  = 
ORIGINATOR     = 

OBJECT_NAME    = CZ-2C R/B
OBJECT_ID      = 2004-046B
CENTER_NAME    = EARTH
REF_FRAME      = TEME
TIME_SYSTEM    = UTC
MEAN_ELEMENT_THEORY = SGP/SGP4

EPOCH          = 2026-03-26T04:10:12.453600
MEAN_MOTION    = 14.26997714
ECCENTRICITY   = .0140581
INCLINATION    = 98.1976
RA_OF_ASC_NODE = 359.1308
ARG_OF_PERICENTER = 105.9909
MEAN_ANOMALY   = 255.6810

EPHEMERIS_TYPE = 0
CLASSIFICATION_TYPE = U
NORAD_CAT_ID   = 28480
ELEMENT_SET_NO = 999
REV_AT_EPOCH   = 11085
BSTAR          = .63882E-4
MEAN_MOTION_DOT = .133E-5
MEAN_MOTION_DDOT = 0

CCSDS_OMM_VERS = 2.0
CREATION_DATE  = 
ORIGINATOR     = 

OBJECT_NAME    = ARIANE 5 R/B
OBJECT_ID      = 2004-049H
CENTER_NAME    = EARTH
REF_FRAME      = TEME
TIME_SYSTEM    = UTC
MEAN_ELEMENT_THEORY = SGP/SGP4

EPOCH          = 2026-03-26T01:41:19.680288
MEAN_MOTION    = 14.85294047
ECCENTRICITY   = .0082978
INCLINATION    = 98.2652
RA_OF_ASC_NODE = 254.1435
ARG_OF_PERICENTER = 298.4005
MEAN_ANOMALY   = 60.8863

EPHEMERIS_TYPE = 0
CLASSIFICATION_TYPE = U
NORAD_CAT_ID   = 28499
ELEMENT_SET_NO = 999
REV_AT_EPOCH   = 14822
BSTAR          = .89704E-4
MEAN_MOTION_DOT = .753E-5
MEAN_MOTION_DDOT = 0

CCSDS_OMM_VERS = 2.0
CREATION_DATE  = 
ORIGINATOR     = 

OBJECT_NAME    = CZ-2D R/B
OBJECT_ID      = 2005-024B
CENTER_NAME    = EARTH
REF_FRAME      = TEME
TIME_SYSTEM    = UTC
MEAN_ELEMENT_THEORY = SGP/SGP4

EPOCH          = 2026-03-25T23:49:54.113088
MEAN_MOTION    = 15.61609473
ECCENTRICITY   = .0002896
INCLINATION    = 97.3589
RA_OF_ASC_NODE = 100.7544
ARG_OF_PERICENTER = 353.4354
MEAN_ANOMALY   = 6.6865

EPHEMERIS_TYPE = 0
CLASSIFICATION_TYPE = U
NORAD_CAT_ID   = 28738
ELEMENT_SET_NO = 999
REV_AT_EPOCH   = 14232
BSTAR          = .47E-3
MEAN_MOTION_DOT = .40397E-3
MEAN_MOTION_DDOT = 0

CCSDS_OMM_VERS = 2.0
CREATION_DATE  = 
ORIGINATOR     = 

OBJECT_NAME    = ALOS (DAICHI)
OBJECT_ID      = 2006-002A
CENTER_NAME    = EARTH
REF_FRAME      = TEME
TIME_SYSTEM    = UTC
MEAN_ELEMENT_THEORY = SGP/SGP4

EPOCH          = 2026-03-26T02:43:17.363424
MEAN_MOTION    = 14.69858128
ECCENTRICITY   = .0000789
INCLINATION    = 98.1244
RA_OF_ASC_NODE = 40.9897
ARG_OF_PERICENTER = 101.8510
MEAN_ANOMALY   = 258.2785

EPHEMERIS_TYPE = 0
CLASSIFICATION_TYPE = U
NORAD_CAT_ID   = 28931
ELEMENT_SET_NO = 999
REV_AT_EPOCH   = 7589
BSTAR          = .22881E-3
MEAN_MOTION_DOT = .1318E-4
MEAN_MOTION_DDOT = 0

