AQUA                    
1 27424U 02022A   26085.18403485  .00001004  00000+0  20993-3 0  9999
2 27424  98.4202  52.8529 0001027 117.4677 332.1701 14.62013384271144
CZ-4B R/B               
1 27432U 02024C   26085.12230953  .00000037  00000+0  41980-4 0  9997
2 27432  98.8804 138.4437 0049636 337.4968  48.9502 14.14550466231566
MIDORI II (ADEOS-II)    
1 27597U 02056A   26085.11474167  .00000298  00000+0  13492-3 0  9995
2 27597  98.7797  43.7088 0000887  25.1601 334.9623 14.29296885212646
H-2A R/B                
1 27601U 02056E   26084.96407233  .00000284  00000+0  11382-3 0  9994
2 27601  98.3231  44.7128 0071296 112.6855 290.1147 14.33771024216446
CZ-4B R/B               
1 28059U 03049C   26084.95651353  .00000347  00000+0  91047-4 0  9995
2 28059  98.6892  80.5014 0048105 180.7013 179.4123 14.55034235188965
CZ-2C R/B               
1 28222U 04012C   26085.10045787  .00057643  00000+0  54995-3 0  9995
2 28222  97.7192 151.9693 0013203 243.0896 116.9015 15.66488362206840
SL-16 R/B               
1 28353U 04021B   26085.00378071  .00000089  00000+0  70982-4 0  9991
2 28353  71.0005 198.2561 0004827 349.9553  10.1472 14.14593800125140
CZ-4B R/B               
1 28415U 04035C   26085.07177719  .00007093  00000+0  24861-3 0  9994
2 28415  97.3476 119.1191 0029980 270.3151  89.4654 15.29341154182415
CZ-2C R/B               
1 28480U 04046B   26085.17375525  .00000133  00000+0  63882-4 0  9999
2 28480  98.1976 359.1308 0140581 105.9909 255.6810 14.26997714110857
ARIANE 5 R/B            
1 28499U 04049H   26085.07036667  .00000753  00000+0  89704-4 0  9991
2 28499  98.2652 254.1435 0082978 298.4005  60.8863 14.85294047148224
CZ-2D R/B               
1 28738U 05024B   26084.99298742  .00040397  00000+0  47000-3 0  9995
2 28738  97.3589 100.7544 0002896 353.4354   6.6865 15.61609473142329
ALOS (DAICHI)           
1 28931U 06002A   26085.11339541  .00001318  00000+0  22881-3 0  9995
2 28931  98.1244  40.9897 0000789 101.8510 258.2785 14.69858128 75898
